{
  "type": "FeatureCollection",
  "features": [
    {
      "type": "Feature",
      "properties": {
        "norad_id": 30553,
        "name": "FENGYUN 1C DEB",
        "group": "fengyun-1c-debris",
        "lat": 21.777488573931926,
        "lon": 68.3230875060676,
        "alt_km": 669.2895138872991,
        "timestamp": "2025-12-04T03:47:54.820455+00:00",
        "meta_object_name": "FENGYUN 1C DEB",
        "meta_object_id": "1999-025AKT",
        "meta_epoch": "2025-12-03T04:51:10.563840",
        "meta_mean_motion": 14.7160039,
        "meta_eccentricity": 0.0021802,
        "meta_inclination": 99.1303,
        "meta_ra_of_asc_node": 70.9355,
        "meta_arg_of_pericenter": 178.8578,
        "meta_mean_anomaly": 181.2679,
        "meta_ephemeris_type": 0,
        "meta_classification_type": "U",
        "meta_norad_cat_id": 30553,
        "meta_element_set_no": 999,
        "meta_rev_at_epoch": 98333,
        "meta_bstar": 0.0048732155,
        "meta_mean_motion_dot": 0.00030493,
        "meta_mean_motion_ddot": 0,
        "tle_line1": "1 30553U 99025AKT 25337.20220560  .00030493  00000+0  48732-2 0  9992",
        "tle_line2": "2 30553  99.1303  70.9355 0021802 178.8578 181.2679 14.71600390983330"
      },
      "geometry": {
        "type": "Point",
        "coordinates": [
          68.3230875060676,
          21.777488573931926
        ]
      }
    },
    {
      "type": "Feature",
      "properties": {
        "norad_id": 30555,
        "name": "FENGYUN 1C DEB",
        "group": "fengyun-1c-debris",
        "lat": -49.30043002147951,
        "lon": 42.08941040776812,
        "alt_km": 800.2784988072754,
        "timestamp": "2025-12-04T03:47:54.820467+00:00",
        "meta_object_name": "FENGYUN 1C DEB",
        "meta_object_id": "1999-025AKV",
        "meta_epoch": "2025-12-03T02:48:58.652064",
        "meta_mean_motion": 14.20717594,
        "meta_eccentricity": 0.00420146,
        "meta_inclination": 98.7588,
        "meta_ra_of_asc_node": 30.7325,
        "meta_arg_of_pericenter": 299.6921,
        "meta_mean_anomaly": 89.2559,
        "meta_ephemeris_type": 0,
        "meta_classification_type": "U",
        "meta_norad_cat_id": 30555,
        "meta_element_set_no": 999,
        "meta_rev_at_epoch": 96799,
        "meta_bstar": 0.0017272462,
        "meta_mean_motion_dot": 3.714e-05,
        "meta_mean_motion_ddot": 0,
        "tle_line1": "1 30555U 99025AKV 25337.11734551  .00003714  00000+0  17272-2 0  9995",
        "tle_line2": "2 30555  98.7588  30.7325 0042014 299.6921  89.2559 14.20717594967992"
      },
      "geometry": {
        "type": "Point",
        "coordinates": [
          42.08941040776812,
          -49.30043002147951
        ]
      }
    },
    {
      "type": "Feature",
      "properties": {
        "norad_id": 30556,
        "name": "FENGYUN 1C DEB",
        "group": "fengyun-1c-debris",
        "lat": -24.410604881075223,
        "lon": -24.239230762461883,
        "alt_km": 880.2911195697734,
        "timestamp": "2025-12-04T03:47:54.820477+00:00",
        "meta_object_name": "FENGYUN 1C DEB",
        "meta_object_id": "1999-025AKW",
        "meta_epoch": "2025-12-03T11:31:14.552256",
        "meta_mean_motion": 14.01353921,
        "meta_eccentricity": 0.0067696,
        "meta_inclination": 98.7817,
        "meta_ra_of_asc_node": 331.0854,
        "meta_arg_of_pericenter": 263.778,
        "meta_mean_anomaly": 251.1046,
        "meta_ephemeris_type": 0,
        "meta_classification_type": "U",
        "meta_norad_cat_id": 30556,
        "meta_element_set_no": 999,
        "meta_rev_at_epoch": 96127,
        "meta_bstar": 0.00038607,
        "meta_mean_motion_dot": 5.51e-06,
        "meta_mean_motion_ddot": 0,
        "tle_line1": "1 30556U 99025AKW 25337.48002954  .00000551  00000+0  38607-3 0  9993",
        "tle_line2": "2 30556  98.7817 331.0854 0067696 263.7780 251.1046 14.01353921961275"
      },
      "geometry": {
        "type": "Point",
        "coordinates": [
          -24.239230762461883,
          -24.410604881075223
        ]
      }
    },
    {
      "type": "Feature",
      "properties": {
        "norad_id": 30557,
        "name": "FENGYUN 1C DEB",
        "group": "fengyun-1c-debris",
        "lat": 11.97978367569082,
        "lon": -134.7112874628155,
        "alt_km": 856.8670691767729,
        "timestamp": "2025-12-04T03:47:54.820487+00:00",
        "meta_object_name": "FENGYUN 1C DEB",
        "meta_object_id": "1999-025AKX",
        "meta_epoch": "2025-12-03T03:10:04.216800",
        "meta_mean_motion": 14.10720476,
        "meta_eccentricity": 0.00676329,
        "meta_inclination": 98.9215,
        "meta_ra_of_asc_node": 42.36,
        "meta_arg_of_pericenter": 259.6004,
        "meta_mean_anomaly": 99.7539,
        "meta_ephemeris_type": 0,
        "meta_classification_type": "U",
        "meta_norad_cat_id": 30557,
        "meta_element_set_no": 999,
        "meta_rev_at_epoch": 96165,
        "meta_bstar": 0.0018577756,
        "meta_mean_motion_dot": 3.349e-05,
        "meta_mean_motion_ddot": 0,
        "tle_line1": "1 30557U 99025AKX 25337.13199325  .00003349  00000+0  18578-2 0  9997",
        "tle_line2": "2 30557  98.9215  42.3600 0067632 259.6004  99.7539 14.10720476961652"
      },
      "geometry": {
        "type": "Point",
        "coordinates": [
          -134.7112874628155,
          11.97978367569082
        ]
      }
    },
    {
      "type": "Feature",
      "properties": {
        "norad_id": 30558,
        "name": "FENGYUN 1C DEB",
        "group": "fengyun-1c-debris",
        "lat": -80.52612770592268,
        "lon": -149.195831780715,
        "alt_km": 866.9624708489919,
        "timestamp": "2025-12-04T03:47:54.820498+00:00",
        "meta_object_name": "FENGYUN 1C DEB",
        "meta_object_id": "1999-025AKY",
        "meta_epoch": "2025-11-30T15:16:00.558048",
        "meta_mean_motion": 13.28421345,
        "meta_eccentricity": 0.042304,
        "meta_inclination": 99.467,
        "meta_ra_of_asc_node": 116.5631,
        "meta_arg_of_pericenter": 302.4359,
        "meta_mean_anomaly": 53.651,
        "meta_ephemeris_type": 0,
        "meta_classification_type": "U",
        "meta_norad_cat_id": 30558,
        "meta_element_set_no": 999,
        "meta_rev_at_epoch": 90597,
        "meta_bstar": 0.0035398,
        "meta_mean_motion_dot": 2.593e-05,
        "meta_mean_motion_ddot": 0,
        "tle_line1": "1 30558U 99025AKY 25334.63611757  .00002593  00000+0  35398-2 0  9997",
        "tle_line2": "2 30558  99.4670 116.5631 0423040 302.4359  53.6510 13.28421345905973"
      },
      "geometry": {
        "type": "Point",
        "coordinates": [
          -149.195831780715,
          -80.52612770592268
        ]
      }
    },
    {
      "type": "Feature",
      "properties": {
        "norad_id": 30560,
        "name": "FENGYUN 1C DEB",
        "group": "fengyun-1c-debris",
        "lat": 81.06643264609085,
        "lon": -103.7860337318924,
        "alt_km": 898.4114926905122,
        "timestamp": "2025-12-04T03:47:54.820509+00:00",
        "meta_object_name": "FENGYUN 1C DEB",
        "meta_object_id": "1999-025ALA",
        "meta_epoch": "2025-12-03T12:43:15.557088",
        "meta_mean_motion": 14.17009365,
        "meta_eccentricity": 0.0114575,
        "meta_inclination": 98.6633,
        "meta_ra_of_asc_node": 331.506,
        "meta_arg_of_pericenter": 238.35,
        "meta_mean_anomaly": 247.2164,
        "meta_ephemeris_type": 0,
        "meta_classification_type": "U",
        "meta_norad_cat_id": 30560,
        "meta_element_set_no": 999,
        "meta_rev_at_epoch": 97238,
        "meta_bstar": 0.0004087,
        "meta_mean_motion_dot": 8.32e-06,
        "meta_mean_motion_ddot": 0,
        "tle_line1": "1 30560U 99025ALA 25337.53004117  .00000832  00000+0  40870-3 0  9994",
        "tle_line2": "2 30560  98.6633 331.5060 0114575 238.3500 247.2164 14.17009365972384"
      },
      "geometry": {
        "type": "Point",
        "coordinates": [
          -103.7860337318924,
          81.06643264609085
        ]
      }
    },
    {
      "type": "Feature",
      "properties": {
        "norad_id": 30561,
        "name": "FENGYUN 1C DEB",
        "group": "fengyun-1c-debris",
        "lat": 5.026035318188483,
        "lon": -20.23792175278622,
        "alt_km": 886.8334555743195,
        "timestamp": "2025-12-04T03:47:54.820520+00:00",
        "meta_object_name": "FENGYUN 1C DEB",
        "meta_object_id": "1999-025ALB",
        "meta_epoch": "2025-12-03T11:28:57.598752",
        "meta_mean_motion": 14.11254311,
        "meta_eccentricity": 0.0060405,
        "meta_inclination": 98.7247,
        "meta_ra_of_asc_node": 339.8753,
        "meta_arg_of_pericenter": 139.8968,
        "meta_mean_anomaly": 13.8599,
        "meta_ephemeris_type": 0,
        "meta_classification_type": "U",
        "meta_norad_cat_id": 30561,
        "meta_element_set_no": 999,
        "meta_rev_at_epoch": 96847,
        "meta_bstar": 0.00045497,
        "meta_mean_motion_dot": 7.93e-06,
        "meta_mean_motion_ddot": 0,
        "tle_line1": "1 30561U 99025ALB 25337.47844443  .00000793  00000+0  45497-3 0  9998",
        "tle_line2": "2 30561  98.7247 339.8753 0060405 139.8968  13.8599 14.11254311968473"
      },
      "geometry": {
        "type": "Point",
        "coordinates": [
          -20.23792175278622,
          5.026035318188483
        ]
      }
    }
  ]
}